start=new Date('2022-11-18T00:00:00.000Z').valueOf();
sats=[{"PERIOD":"95.593","ARG_OF_PERICENTER":"87.1452","OBJECT_ID":"2021-012C","SITE":"AFETR","OBJECT_NAME":"STARLINK-1645","BSTAR":"0.00011420000000","MEAN_MOTION":"15.06392782","NORAD_CAT_ID":"47622","TLE_LINE2":"2 47622  53.0550  94.9345 0001323  87.1452 272.9688 15.06392782 97899","REV_AT_EPOCH":"9789","OBJECT_TYPE":"PAYLOAD","APOAPSIS":"548.152","GP_ID":"218094924","REF_FRAME":"TEME","EPOCH":"2022-11-17T14:26:47.345568","FILE":"3661914","MEAN_ANOMALY":"272.9688","ECCENTRICITY":"0.00013230","EPHEMERIS_TYPE":"0","CLASSIFICATION_TYPE":"U","TLE_LINE1":"1 47622U 21012C   22321.60193687  .00001420  00000-0  11420-3 0  9995","ELEMENT_SET_NO":"999","INCLINATION":"53.0550","MEAN_MOTION_DDOT":"0.0000000000000","MEAN_ELEMENT_THEORY":"SGP4","RA_OF_ASC_NODE":"94.9345","PERIAPSIS":"546.319","RCS_SIZE":"LARGE","SEMIMAJOR_AXIS":"6925.371","COUNTRY_CODE":"US","MEAN_MOTION_DOT":"0.00001420","LAUNCH_DATE":"2021-02-16","DECAY_DATE":null,"CENTER_NAME":"EARTH","TIME_SYSTEM":"UTC"},{"INCLINATION":"53.0565","MEAN_MOTION_DDOT":"0.0000000000000","MEAN_ELEMENT_THEORY":"SGP4","RA_OF_ASC_NODE":"29.5957","PERIAPSIS":"546.272","RCS_SIZE":"LARGE","SEMIMAJOR_AXIS":"6925.386","COUNTRY_CODE":"US","MEAN_MOTION_DOT":"0.00000088","LAUNCH_DATE":"2021-02-16","DECAY_DATE":null,"TIME_SYSTEM":"UTC","CENTER_NAME":"EARTH","OBJECT_TYPE":"PAYLOAD","GP_ID":"218095675","APOAPSIS":"548.230","REF_FRAME":"TEME","EPOCH":"2022-11-17T16:20:16.227168","FILE":"3661914","MEAN_ANOMALY":"288.0404","ECCENTRICITY":"0.00014140","EPHEMERIS_TYPE":"0","ELEMENT_SET_NO":"999","TLE_LINE1":"1 47623U 21012D   22321.68074337  .00000088  00000-0  24832-4 0  9995","CLASSIFICATION_TYPE":"U","TLE_LINE2":"2 47623  53.0565  29.5957 0001414  72.0739 288.0404 15.06387773 98823","REV_AT_EPOCH":"9882","PERIOD":"95.593","ARG_OF_PERICENTER":"72.0739","OBJECT_ID":"2021-012D","SITE":"AFETR","OBJECT_NAME":"STARLINK-1655","BSTAR":"0.00002483200000","MEAN_MOTION":"15.06387773","NORAD_CAT_ID":"47623"},{"SITE":"AFETR","OBJECT_NAME":"STARLINK-1669","ARG_OF_PERICENTER":"106.8969","OBJECT_ID":"2021-012E","PERIOD":"95.592","NORAD_CAT_ID":"47624","MEAN_MOTION":"15.06405356","BSTAR":"0.00001407200000","TLE_LINE2":"2 47624  53.0558  74.0249 0001678 106.8969 253.2204 15.06405356 98222","REV_AT_EPOCH":"9822","FILE":"3661914","EPOCH":"2022-11-17T19:22:42.376224","REF_FRAME":"TEME","OBJECT_TYPE":"PAYLOAD","APOAPSIS":"548.359","GP_ID":"218095417","EPHEMERIS_TYPE":"0","TLE_LINE1":"1 47624U 21012E   22321.80743491 -.00000072  00000-0  14072-4 0  9993","CLASSIFICATION_TYPE":"U","ELEMENT_SET_NO":"999","MEAN_ANOMALY":"253.2204","ECCENTRICITY":"0.00016780","RA_OF_ASC_NODE":"74.0249","MEAN_ELEMENT_THEORY":"SGP4","INCLINATION":"53.0558","MEAN_MOTION_DDOT":"0.0000000000000","LAUNCH_DATE":"2021-02-16","DECAY_DATE":null,"CENTER_NAME":"EARTH","TIME_SYSTEM":"UTC","COUNTRY_CODE":"US","SEMIMAJOR_AXIS":"6925.332","MEAN_MOTION_DOT":"-0.00000072","RCS_SIZE":"LARGE","PERIAPSIS":"546.035"},{"TIME_SYSTEM":"UTC","DECAY_DATE":null,"LAUNCH_DATE":"2021-02-16","CENTER_NAME":"EARTH","COUNTRY_CODE":"US","SEMIMAJOR_AXIS":"6925.378","MEAN_MOTION_DOT":"-0.00001118","RCS_SIZE":"LARGE","PERIAPSIS":"546.321","RA_OF_ASC_NODE":"94.8847","MEAN_ELEMENT_THEORY":"SGP4","INCLINATION":"53.0551","MEAN_MOTION_DDOT":"0.0000000000000","EPHEMERIS_TYPE":"0","ELEMENT_SET_NO":"999","TLE_LINE1":"1 47625U 21012F   22321.60929469 -.00001118  00000-0 -56160-4 0  9990","CLASSIFICATION_TYPE":"U","MEAN_ANOMALY":"284.4515","ECCENTRICITY":"0.00013320","FILE":"3661914","EPOCH":"2022-11-17T14:37:23.061216","REF_FRAME":"TEME","OBJECT_TYPE":"PAYLOAD","APOAPSIS":"548.166","GP_ID":"218094174","TLE_LINE2":"2 47625  53.0551  94.8847 0001332  75.6622 284.4515 15.06390311 97893","REV_AT_EPOCH":"9789","NORAD_CAT_ID":"47625","MEAN_MOTION":"15.06390311","BSTAR":"-0.00005616000000","SITE":"AFETR","OBJECT_NAME":"STARLINK-1704","ARG_OF_PERICENTER":"75.6622","OBJECT_ID":"2021-012F","PERIOD":"95.593"},{"INCLINATION":"53.0552","MEAN_MOTION_DDOT":"0.0000000000000","RA_OF_ASC_NODE":"94.9710","MEAN_ELEMENT_THEORY":"SGP4","RCS_SIZE":"LARGE","PERIAPSIS":"546.274","LAUNCH_DATE":"2021-02-16","DECAY_DATE":null,"CENTER_NAME":"EARTH","TIME_SYSTEM":"UTC","SEMIMAJOR_AXIS":"6925.386","COUNTRY_CODE":"US","MEAN_MOTION_DOT":"-0.00000279","REF_FRAME":"TEME","OBJECT_TYPE":"PAYLOAD","GP_ID":"218094424","APOAPSIS":"548.228","FILE":"3661914","EPOCH":"2022-11-17T14:17:30.894144","EPHEMERIS_TYPE":"0","TLE_LINE1":"1 47626U 21012G   22321.59549646 -.00000279  00000-0  16212-6 0  9996","CLASSIFICATION_TYPE":"U","ELEMENT_SET_NO":"999","MEAN_ANOMALY":"273.5960","ECCENTRICITY":"0.00014110","TLE_LINE2":"2 47626  53.0552  94.9710 0001411  86.5190 273.5960 15.06387735 97893","REV_AT_EPOCH":"9789","PERIOD":"95.593","SITE":"AFETR","OBJECT_NAME":"STARLINK-1761","ARG_OF_PERICENTER":"86.5190","OBJECT_ID":"2021-012G","BSTAR":"0.00000016212000","NORAD_CAT_ID":"47626","MEAN_MOTION":"15.06387735"},{"EPHEMERIS_TYPE":"0","TLE_LINE1":"1 47627U 21012H   22321.40705497  .00000522  00000-0  53967-4 0  9991","CLASSIFICATION_TYPE":"U","ELEMENT_SET_NO":"999","MEAN_ANOMALY":"285.6334","ECCENTRICITY":"0.00015860","FILE":"3661693","EPOCH":"2022-11-17T09:46:09.549408","REF_FRAME":"TEME","OBJECT_TYPE":"PAYLOAD","GP_ID":"218063499","APOAPSIS":"548.328","DECAY_DATE":null,"LAUNCH_DATE":"2021-02-16","CENTER_NAME":"EARTH","TIME_SYSTEM":"UTC","COUNTRY_CODE":"US","SEMIMAJOR_AXIS":"6925.365","MEAN_MOTION_DOT":"0.00000522","RCS_SIZE":"LARGE","PERIAPSIS":"546.131","RA_OF_ASC_NODE":"0.8199","MEAN_ELEMENT_THEORY":"SGP4","INCLINATION":"53.0561","MEAN_MOTION_DDOT":"0.0000000000000","NORAD_CAT_ID":"47627","MEAN_MOTION":"15.06394683","BSTAR":"0.00005396700000","SITE":"AFETR","OBJECT_NAME":"STARLINK-1972","ARG_OF_PERICENTER":"74.4830","OBJECT_ID":"2021-012H","PERIOD":"95.592","REV_AT_EPOCH":"9917","TLE_LINE2":"2 47627  53.0561   0.8199 0001586  74.4830 285.6334 15.06394683 99173"},{"NORAD_CAT_ID":"47628","MEAN_MOTION":"15.06384219","BSTAR":"0.00002186200000","OBJECT_NAME":"STARLINK-1973","SITE":"AFETR","OBJECT_ID":"2021-012J","ARG_OF_PERICENTER":"92.3879","PERIOD":"95.593","TLE_LINE2":"2 47628  53.0558  94.2022 0001267  92.3879 267.7255 15.06384219 97928","REV_AT_EPOCH":"9792","ELEMENT_SET_NO":"999","TLE_LINE1":"1 47628U 21012J   22321.76411778  .00000044  00000-0  21862-4 0  9995","CLASSIFICATION_TYPE":"U","EPHEMERIS_TYPE":"0","ECCENTRICITY":"0.00012670","MEAN_ANOMALY":"267.7255","FILE":"3661914","EPOCH":"2022-11-17T18:20:19.776192","REF_FRAME":"TEME","APOAPSIS":"548.139","GP_ID":"218095918","OBJECT_TYPE":"PAYLOAD","DECAY_DATE":null,"CENTER_NAME":"EARTH","LAUNCH_DATE":"2021-02-16","TIME_SYSTEM":"UTC","MEAN_MOTION_DOT":"0.00000044","SEMIMAJOR_AXIS":"6925.397","COUNTRY_CODE":"US","RCS_SIZE":"LARGE","PERIAPSIS":"546.384","RA_OF_ASC_NODE":"94.2022","MEAN_ELEMENT_THEORY":"SGP4","MEAN_MOTION_DDOT":"0.0000000000000","INCLINATION":"53.0558"},{"FILE":"3661914","EPOCH":"2022-11-17T17:55:08.420736","REF_FRAME":"TEME","GP_ID":"218094675","APOAPSIS":"548.483","OBJECT_TYPE":"PAYLOAD","ELEMENT_SET_NO":"999","TLE_LINE1":"1 47629U 21012K   22321.74662524  .00000470  00000-0  50483-4 0  9995","CLASSIFICATION_TYPE":"U","EPHEMERIS_TYPE":"0","MEAN_ANOMALY":"302.5837","ECCENTRICITY":"0.00018010","RA_OF_ASC_NODE":"334.2994","MEAN_ELEMENT_THEORY":"SGP4","MEAN_MOTION_DDOT":"0.0000000000000","INCLINATION":"53.0550","TIME_SYSTEM":"UTC","DECAY_DATE":null,"LAUNCH_DATE":"2021-02-16","CENTER_NAME":"EARTH","MEAN_MOTION_DOT":"0.00000470","COUNTRY_CODE":"US","SEMIMAJOR_AXIS":"6925.370","RCS_SIZE":"LARGE","PERIAPSIS":"545.988","OBJECT_NAME":"STARLINK-1974","SITE":"AFETR","OBJECT_ID":"2021-012K","ARG_OF_PERICENTER":"57.5326","PERIOD":"95.593","NORAD_CAT_ID":"47629","MEAN_MOTION":"15.06392876","BSTAR":"0.00005048300000","TLE_LINE2":"2 47629  53.0550 334.2994 0001801  57.5326 302.5837 15.06392876 99586","REV_AT_EPOCH":"9958"},{"FILE":"3661914","EPOCH":"2022-11-17T16:54:06.878592","REF_FRAME":"TEME","OBJECT_TYPE":"PAYLOAD","APOAPSIS":"548.011","GP_ID":"218094925","EPHEMERIS_TYPE":"0","ELEMENT_SET_NO":"999","TLE_LINE1":"1 47630U 21012L   22321.70424628  .00000100  00000-0  25593-4 0  9998","CLASSIFICATION_TYPE":"U","MEAN_ANOMALY":"296.1413","ECCENTRICITY":"0.00011300","RA_OF_ASC_NODE":"74.5676","MEAN_ELEMENT_THEORY":"SGP4","INCLINATION":"53.0552","MEAN_MOTION_DDOT":"0.0000000000000","DECAY_DATE":null,"TIME_SYSTEM":"UTC","LAUNCH_DATE":"2021-02-16","CENTER_NAME":"EARTH","SEMIMAJOR_AXIS":"6925.364","COUNTRY_CODE":"US","MEAN_MOTION_DOT":"0.00000100","RCS_SIZE":"LARGE","PERIAPSIS":"546.446","SITE":"AFETR","OBJECT_NAME":"STARLINK-1983","ARG_OF_PERICENTER":"63.9692","OBJECT_ID":"2021-012L","PERIOD":"95.592","NORAD_CAT_ID":"47630","MEAN_MOTION":"15.06395052","BSTAR":"0.00002559300000","TLE_LINE2":"2 47630  53.0552  74.5676 0001130  63.9692 296.1413 15.06395052 98174","REV_AT_EPOCH":"9817"},{"INCLINATION":"53.0545","MEAN_MOTION_DDOT":"0.0000000000000","MEAN_ELEMENT_THEORY":"SGP4","RA_OF_ASC_NODE":"359.8056","PERIAPSIS":"545.974","RCS_SIZE":"LARGE","SEMIMAJOR_AXIS":"6925.334","COUNTRY_CODE":"US","MEAN_MOTION_DOT":"0.00005974","DECAY_DATE":null,"LAUNCH_DATE":"2021-02-16","CENTER_NAME":"EARTH","TIME_SYSTEM":"UTC","OBJECT_TYPE":"PAYLOAD","GP_ID":"218095676","APOAPSIS":"548.424","REF_FRAME":"TEME","EPOCH":"2022-11-17T15:08:33.901152","FILE":"3661914","MEAN_ANOMALY":"303.9595","ECCENTRICITY":"0.00017690","EPHEMERIS_TYPE":"0","ELEMENT_SET_NO":"999","TLE_LINE1":"1 47632U 21012N   22321.63094793  .00005974  00000-0  41954-3 0  9990","CLASSIFICATION_TYPE":"U","REV_AT_EPOCH":"9921","TLE_LINE2":"2 47632  53.0545 359.8056 0001769  56.1562 303.9595 15.06404637 99211","PERIOD":"95.592","ARG_OF_PERICENTER":"56.1562","OBJECT_ID":"2021-012N","SITE":"AFETR","OBJECT_NAME":"STARLINK-1992","BSTAR":"0.00041954000000","MEAN_MOTION":"15.06404637","NORAD_CAT_ID":"47632"}];
